STARLINK-4106           
1 53145U 22083P   24300.11781521  .00000719  00000+0  63264-4 0  9999
2 53145  53.2179 256.7839 0001373  97.1935 262.9213 15.08826570125808
STARLINK-4099           
1 53146U 22083Q   24300.26501205  .00002658  00000+0  18504-3 0  9995
2 53146  53.2163 256.1229 0001429  86.3674 273.7481 15.08836746125826
STARLINK-4094           
1 53147U 22083R   24300.11413585 -.00000927  00000+0 -40186-4 0  9994
2 53147  53.2175 256.8032 0001471 106.1315 253.9839 15.08830683126450
STARLINK-4021           
1 53149U 22083T   24300.14178754  .00002236  00000+0  15850-3 0  9997
2 53149  53.2171 246.8787 0000897  97.7674 262.3420 15.08838048125944
STARLINK-4038           
1 53150U 22083U   24300.22912588  .00006285  00000+0  41262-3 0  9993
2 53150  53.2163 246.2859 0001381  89.2775 270.8376 15.08839159125957
STARLINK-4040           
1 53151U 22083V   24300.15184535  .00000745  00000+0  64891-4 0  9998
2 53151  53.2182 246.6327 0001427  95.3787 264.7368 15.08840668125944
STARLINK-4045           
1 53152U 22083W   24300.15920567  .00000800  00000+0  68348-4 0  9995
2 53152  53.2168 246.6020 0001415 106.4471 253.6677 15.08837720125945
STARLINK-4098           
1 53153U 22083X   24300.14816981  .00002424  00000+0  17036-3 0  9990
2 53153  53.2163 246.6476 0001908  98.8381 261.2828 15.08842345125949
STARLINK-4077           
1 53154U 22083Y   24300.28800979  .00000933  00000+0  76714-4 0  9998
2 53154  53.2162 246.0208 0001449 104.5423 255.5730 15.08832831125967
STARLINK-4088           
1 53155U 22083Z   24300.14080984  .00001205  00000+0  93793-4 0  9999
2 53155  53.2175 246.6781 0001298  99.1434 260.9705 15.08830173126585
STARLINK-4087           
1 53156U 22083AA  24300.26222860  .00005558  00000+0  36699-3 0  9990
2 53156  53.2164 246.0101 0001373 107.8696 252.2446 15.08842280125964
STARLINK-4093           
1 53157U 22083AB  24300.26592764  .00001011  00000+0  81616-4 0  9994
2 53157  53.2178 246.1185 0001424  96.0351 264.0803 15.08836218125969
STARLINK-4054           
1 53158U 22083AC  24300.14448973  .00001337  00000+0  10211-3 0  9997
2 53158  53.2169 246.6608 0001278 101.7996 258.3140 15.08837552125941
STARLINK-4111           
1 53159U 22083AD  24300.12609194  .00002068  00000+0  14796-3 0  9994
2 53159  53.2161 246.7506 0001312  94.7907 265.3235 15.08840521125947
STARLINK-4096           
1 53160U 22083AE  24300.26960617  .00001081  00000+0  85992-4 0  9992
2 53160  53.2173 246.1012 0001529  89.5205 270.5962 15.08836626125969
STARLINK-4055           
1 53161U 22083AF  24300.18129049  .00002083  00000+0  14896-3 0  9997
2 53161  53.2168 246.5021 0001611  82.6087 277.5089 15.08838376125952
STARLINK-4114           
1 53162U 22083AG  24300.13072206  .00001474  00000+0  11068-3 0  9996
2 53162  53.2188 246.7384 0001672 102.5625 257.5554 15.08840406125947
STARLINK-4104           
1 53163U 22083AH  24300.12241240 -.00003490  00000+0 -20127-3 0  9990
2 53163  53.2165 246.9067 0001396 100.2551 259.8599 15.08847850125943
STARLINK-4116           
1 53164U 22083AJ  24300.11872946  .00000799  00000+0  68315-4 0  9992
2 53164  53.2173 246.7792 0001682  93.4703 266.6482 15.08838419125944
STARLINK-4090           
1 53165U 22083AK  24300.10400651  .00000146  00000+0  27234-4 0  9993
2 53165  53.2152 246.8458 0001265  86.7001 273.4135 15.08835717125944
STARLINK-4110           
1 53166U 22083AL  24300.17761161  .00001598  00000+0  11844-3 0  9998
2 53166  53.2173 246.5160 0001379  94.3902 265.7248 15.08839462125957
STARLINK-3683           
1 53167U 22083AM  24300.12194476  .00000912  00000+0  75363-4 0  9999
2 53167  53.2174 231.7559 0001184 102.0073 258.1052 15.08843288126149
STARLINK-4105           
1 53168U 22083AN  24300.17393405 -.00001052  00000+0 -48041-4 0  9999
2 53168  53.2164 246.5323 0001461  91.5886 268.5273 15.08837303125953
STARLINK-4117           
1 53169U 22083AP  24300.09990106  .00001648  00000+0  12158-3 0  9990
2 53169  53.2166 232.1225 0001495 102.2873 257.8287 15.08841213126133
STARLINK-4095           
1 53170U 22083AQ  24300.13573969  .00002764  00000+0  19168-3 0  9999
2 53170  53.2161 241.6520 0001454  97.4040 262.7117 15.08842859126010
STARLINK-4052           
1 53171U 22083AR  24300.17665922  .00001819  00000+0  13235-3 0  9994
2 53171  53.2164 216.2797 0001696 105.0198 255.0982 15.08841463126369
STARLINK-4299           
1 53172U 22083AS  24300.12837598  .00001543  00000+0  11500-3 0  9997
2 53172  53.2165 241.6516 0001294  88.2416 271.8724 15.08839360126005
STARLINK-4300           
1 53173U 22083AT  24300.08239563  .00006678  00000+0  43743-3 0  9999
2 53173  53.2165 221.9342 0001184  88.6999 271.4129 15.08823540126279
STARLINK-4205           
1 53174U 22083AU  24300.30276016  .00001483  00000+0  11127-3 0  9999
2 53174  53.2171 255.8843 0001640 105.5742 254.5431 15.08834536125826
STARLINK-4292           
1 53175U 22083AV  24300.30548780  .00000345  00000+0  39786-4 0  9998
2 53175  53.2158 255.9407 0001571  91.3311 268.7861 15.08837097125825
STARLINK-4294           
1 53176U 22083AW  24300.11089464  .00002093  00000+0  14957-3 0  9991
2 53176  53.2172 231.7353 0001444 103.8575 256.2578 15.08840966126146
STARLINK-4298           
1 53177U 22083AX  24300.47246162  .00000570  00000+0  53875-4 0  9992
2 53177  53.2176 220.1865 0001300  95.8184 264.2956 15.08845700126979
STARLINK-4280           
1 53178U 22083AY  24300.29905014  .00000626  00000+0  57408-4 0  9999
2 53178  53.2172 245.9708 0001351  85.4284 274.6863 15.08835314125958
STARLINK-4276           
1 53179U 22083AZ  24300.02668137  .00001536  00000+0  11456-3 0  9996
2 53179  53.2153 206.7854 0001158  93.2404 266.8720 15.08832623126485
STARLINK-4258           
1 53180U 22083BA  24300.44990957  .00003388  00000+0  23082-3 0  9997
2 53180  53.2170 205.1681 0001227  92.9101 267.2031 15.08847603126545
STARLINK-4273           
1 53181U 22083BB  24300.58334491  .00183679  00000+0  69181-2 0  9999
2 53181  53.1960 198.7310 0009573 122.9537 357.6983 15.25833782  5882
STARLINK-4278           
1 53182U 22083BC  24300.07134667  .00002378  00000+0  16750-3 0  9998
2 53182  53.2164 221.9770 0001357  98.9476 261.1670 15.08833966126279
STARLINK-4268           
1 53183U 22083BD  24300.47706058  .00000122  00000+0  25790-4 0  9992
2 53183  53.2165 210.0882 0001436  83.0143 277.1013 15.08837194127117
STARLINK-4257           
1 53184U 22083BE  24300.02300354 -.00000063  00000+0  14143-4 0  9998
2 53184  53.2165 206.7957 0001500  86.7725 273.3439 15.08832321126498
STARLINK-4391           
1 53189U 22084A   24300.56059725  .00000936  00000+0  77490-4 0  9998
2 53189  97.6557 359.4911 0001592  94.2178 265.9228 15.01262293125101
STARLINK-4332           
1 53190U 22084B   24300.45481944  .00000479  00000+0  41870-4 0  9995
2 53190  97.6589 359.4003 0001541 106.9173 253.2220 15.01260389125083
STARLINK-4369           
1 53191U 22084C   24300.41593294  .00000639  00000+0  54314-4 0  9999
2 53191  97.6562 359.3602 0000403 243.8754 116.2429 15.01262241124404
STARLINK-4375           
1 53192U 22084D   24300.41408475  .00000294  00000+0  27473-4 0  9999
2 53192  97.6559 359.3578 0001153 221.5262 138.5875 15.01258477125075
STARLINK-4351           
1 53193U 22084E   24300.41963993  .00000878  00000+0  72974-4 0  9995
2 53193  97.6560 359.3642 0001125  96.1737 263.9615 15.01260560125422
STARLINK-4382           
1 53194U 22084F   24300.41778724  .00001170  00000+0  95644-4 0  9997
2 53194  97.6563 359.3626 0000886  96.7266 263.4059 15.01262785124409
STARLINK-4404           
1 53195U 22084G   24300.40482323  .00000292  00000+0  27366-4 0  9994
2 53195  97.6567 359.3650 0002690 186.9628 173.1560 15.01260806125070
STARLINK-4407           
1 53196U 22084H   24300.40667360  .00000460  00000+0  40380-4 0  9999
2 53196  97.6565 359.3670 0003361 205.1729 154.9332 15.01260387125060
STARLINK-4403           
1 53197U 22084J   24300.40852616  .00003295  00000+0  26101-3 0  9993
2 53197  97.6565 359.3516 0002989 210.2619 149.8433 15.01255948124409
STARLINK-4385           
1 53198U 22084K   24300.41223311 -.00000161  00000+0 -79220-5 0  9992
2 53198  97.6558 359.3562 0001356 249.5859 110.5219 15.01256366125066
STARLINK-4395           
1 53199U 22084L   24300.41036692  .00001323  00000+0  10758-3 0  9995
2 53199  97.6566 359.3450 0002268 218.2088 141.8976 15.01269827124402
STARLINK-4417           
1 53200U 22084M   24300.40691878  .00000589  00000+0  50447-4 0  9993
2 53200  97.6565 359.3576 0003164 198.1550 161.9562 15.01262028125062
STARLINK-4405           
1 53201U 22084N   24300.13105608  .00000476  00000+0  41611-4 0  9993
2 53201  97.6577 359.0919 0000571 112.5683 247.5602 15.01259565124360
STARLINK-4411           
1 53202U 22084P   24300.40297566  .00000394  00000+0  35274-4 0  9996
2 53202  97.6566 359.3548 0002442 179.2244 180.8985 15.01260478124405
STARLINK-4409           
1 53203U 22084Q   24300.13266380  .00000990  00000+0  81676-4 0  9996
2 53203  97.6575 359.0806 0000660 204.2600 155.8594 15.01257438124360
STARLINK-4410           
1 53204U 22084R   24300.40322020 -.00000423  00000+0 -28325-4 0  9996
2 53204  97.6570 359.3499 0002122 188.4778 171.6411 15.01255531125065
STARLINK-4397           
1 53205U 22084S   24300.12896693  .00000485  00000+0  42366-4 0  9995
2 53205  97.6573 359.0780 0000757  84.0711 276.0600 15.01252334124369
STARLINK-4408           
1 53206U 22084T   24300.45111319  .00000882  00000+0  73217-4 0  9997
2 53206  97.6580 359.4426 0001474 100.2593 259.8797 15.01260161124414
STARLINK-4413           
1 53207U 22084U   24300.12711082  .00001253  00000+0  10216-3 0  9997
2 53207  97.6583 359.0767 0000480  98.3415 261.7864 15.01257945124365
STARLINK-4425           
1 53208U 22084V   24300.53442677  .00001805  00000+0  14506-3 0  9993
2 53208  97.6572 359.4763 0000862 161.6791 198.4464 15.01265178124425
